FENGYUN 1C DEB          
1 30715U 99025ARZ 17345.58876669  .00000489  00000-0  34020-3 0  9999
2 30715  99.1981   5.3537 0077165  20.3075 340.1130 14.02211566551158
